start=new Date('2021-12-24T00:00:00.000Z').valueOf();
sats=[{"OBJECT_NAME":"STARLINK-2470","BSTAR":"-0.00000738100000","APOAPSIS":"548.738","RCS_SIZE":"LARGE","TLE_LINE1":"1 48334U 21036BL  21357.87329122 -.00000392  00000-0 -73810-5 0  9996","CENTER_NAME":"EARTH","NORAD_CAT_ID":"48334","MEAN_MOTION_DDOT":"0.0000000000000","EPHEMERIS_TYPE":"0","PERIOD":"95.592","REV_AT_EPOCH":"3640","TIME_SYSTEM":"UTC","ELEMENT_SET_NO":"999","PERIAPSIS":"545.699","INCLINATION":"53.0531","MEAN_ELEMENT_THEORY":"SGP4","LAUNCH_DATE":"2021-04-29","OBJECT_TYPE":"PAYLOAD","OBJECT_ID":"2021-036BL","GP_ID":"192324945","RA_OF_ASC_NODE":"160.6595","REF_FRAME":"TEME","MEAN_ANOMALY":"267.1324","SEMIMAJOR_AXIS":"6925.354","FILE":"3249421","MEAN_MOTION":"15.06398280","ARG_OF_PERICENTER":"92.9916","EPOCH":"2021-12-23T20:57:32.361408","COUNTRY_CODE":"US","CLASSIFICATION_TYPE":"U","DECAY_DATE":null,"MEAN_MOTION_DOT":"-0.00000392","ECCENTRICITY":"0.00021940","TLE_LINE2":"2 48334  53.0531 160.6595 0002194  92.9916 267.1324 15.06398280 36405","SITE":"AFETR"},{"EPOCH":"2021-12-23T19:16:41.654496","COUNTRY_CODE":"US","RA_OF_ASC_NODE":"160.9767","REF_FRAME":"TEME","SEMIMAJOR_AXIS":"6925.353","MEAN_ANOMALY":"267.9591","MEAN_MOTION":"15.06398405","FILE":"3249421","ARG_OF_PERICENTER":"92.1679","SITE":"AFETR","DECAY_DATE":null,"CLASSIFICATION_TYPE":"U","ECCENTRICITY":"0.00024490","MEAN_MOTION_DOT":"0.00000453","TLE_LINE2":"2 48335  53.0541 160.9767 0002449  92.1679 267.9591 15.06398405 36393","APOAPSIS":"548.914","RCS_SIZE":"LARGE","TLE_LINE1":"1 48335U 21036BM  21357.80325989  .00000453  00000-0  49356-4 0  9990","CENTER_NAME":"EARTH","MEAN_MOTION_DDOT":"0.0000000000000","NORAD_CAT_ID":"48335","OBJECT_NAME":"STARLINK-2441","BSTAR":"0.00004935600000","PERIAPSIS":"545.522","MEAN_ELEMENT_THEORY":"SGP4","INCLINATION":"53.0541","LAUNCH_DATE":"2021-04-29","GP_ID":"192324196","OBJECT_TYPE":"PAYLOAD","OBJECT_ID":"2021-036BM","PERIOD":"95.592","EPHEMERIS_TYPE":"0","TIME_SYSTEM":"UTC","REV_AT_EPOCH":"3639","ELEMENT_SET_NO":"999"},{"OBJECT_NAME":"STARLINK-2613","BSTAR":"0.00007050200000","CENTER_NAME":"EARTH","NORAD_CAT_ID":"48353","MEAN_MOTION_DDOT":"0.0000000000000","APOAPSIS":"548.089","RCS_SIZE":"LARGE","TLE_LINE1":"1 48353U 21038A   21357.60974292  .00000769  00000-0  70502-4 0  9994","ELEMENT_SET_NO":"999","EPHEMERIS_TYPE":"0","PERIOD":"95.592","REV_AT_EPOCH":"3535","TIME_SYSTEM":"UTC","LAUNCH_DATE":"2021-05-04","OBJECT_TYPE":"PAYLOAD","OBJECT_ID":"2021-038A","GP_ID":"192325194","PERIAPSIS":"546.367","INCLINATION":"53.0548","MEAN_ELEMENT_THEORY":"SGP4","FILE":"3249421","MEAN_MOTION":"15.06395311","ARG_OF_PERICENTER":"87.7562","REF_FRAME":"TEME","RA_OF_ASC_NODE":"61.8461","SEMIMAJOR_AXIS":"6925.363","MEAN_ANOMALY":"272.3570","COUNTRY_CODE":"US","EPOCH":"2021-12-23T14:38:01.788288","TLE_LINE2":"2 48353  53.0548  61.8461 0001243  87.7562 272.3570 15.06395311 35357","CLASSIFICATION_TYPE":"U","DECAY_DATE":null,"MEAN_MOTION_DOT":"0.00000769","ECCENTRICITY":"0.00012430","SITE":"AFETR"},{"COUNTRY_CODE":"US","EPOCH":"2021-12-23T12:57:10.677024","MEAN_MOTION":"15.06399406","FILE":"3249022","ARG_OF_PERICENTER":"80.9635","RA_OF_ASC_NODE":"62.1503","REF_FRAME":"TEME","SEMIMAJOR_AXIS":"6925.350","MEAN_ANOMALY":"279.1509","SITE":"AFETR","TLE_LINE2":"2 48354  53.0564  62.1503 0001370  80.9635 279.1509 15.06399406 35934","DECAY_DATE":null,"CLASSIFICATION_TYPE":"U","ECCENTRICITY":"0.00013700","MEAN_MOTION_DOT":"-0.00000593","CENTER_NAME":"EARTH","MEAN_MOTION_DDOT":"0.0000000000000","NORAD_CAT_ID":"48354","RCS_SIZE":"LARGE","APOAPSIS":"548.164","TLE_LINE1":"1 48354U 21038B   21357.53970691 -.00000593  00000-0 -20950-4 0  9995","OBJECT_NAME":"STARLINK-2674","BSTAR":"-0.00002095000000","LAUNCH_DATE":"2021-05-04","GP_ID":"192298581","OBJECT_ID":"2021-038B","OBJECT_TYPE":"PAYLOAD","PERIAPSIS":"546.267","INCLINATION":"53.0564","MEAN_ELEMENT_THEORY":"SGP4","ELEMENT_SET_NO":"999","PERIOD":"95.592","EPHEMERIS_TYPE":"0","TIME_SYSTEM":"UTC","REV_AT_EPOCH":"3593"},{"ECCENTRICITY":"0.00018730","MEAN_MOTION_DOT":"0.00001675","DECAY_DATE":null,"CLASSIFICATION_TYPE":"U","TLE_LINE2":"2 48355  53.0559  61.8800 0001873 100.5683 259.5517 15.06398516 35353","SITE":"AFETR","MEAN_ANOMALY":"259.5517","SEMIMAJOR_AXIS":"6925.353","REF_FRAME":"TEME","RA_OF_ASC_NODE":"61.8800","ARG_OF_PERICENTER":"100.5683","MEAN_MOTION":"15.06398516","FILE":"3249421","EPOCH":"2021-12-23T14:27:24.814656","COUNTRY_CODE":"US","TIME_SYSTEM":"UTC","REV_AT_EPOCH":"3535","PERIOD":"95.592","EPHEMERIS_TYPE":"0","ELEMENT_SET_NO":"999","INCLINATION":"53.0559","MEAN_ELEMENT_THEORY":"SGP4","PERIAPSIS":"545.921","GP_ID":"192324198","OBJECT_ID":"2021-038C","OBJECT_TYPE":"PAYLOAD","LAUNCH_DATE":"2021-05-04","BSTAR":"0.00013130000000","OBJECT_NAME":"STARLINK-2635","TLE_LINE1":"1 48355U 21038C   21357.60237054  .00001675  00000-0  13130-3 0  9994","RCS_SIZE":"LARGE","APOAPSIS":"548.515","MEAN_MOTION_DDOT":"0.0000000000000","NORAD_CAT_ID":"48355","CENTER_NAME":"EARTH"},{"BSTAR":"0.00001881900000","OBJECT_NAME":"STARLINK-2637","TLE_LINE1":"1 48356U 21038D   21357.59867359 -.00000001  00000-0  18819-4 0  9993","APOAPSIS":"548.079","RCS_SIZE":"LARGE","MEAN_MOTION_DDOT":"0.0000000000000","NORAD_CAT_ID":"48356","CENTER_NAME":"EARTH","TIME_SYSTEM":"UTC","REV_AT_EPOCH":"3535","PERIOD":"95.592","EPHEMERIS_TYPE":"0","ELEMENT_SET_NO":"999","MEAN_ELEMENT_THEORY":"SGP4","INCLINATION":"53.0578","PERIAPSIS":"546.309","GP_ID":"192324449","OBJECT_ID":"2021-038D","OBJECT_TYPE":"PAYLOAD","LAUNCH_DATE":"2021-05-04","SEMIMAJOR_AXIS":"6925.329","MEAN_ANOMALY":"264.4040","RA_OF_ASC_NODE":"61.8839","REF_FRAME":"TEME","ARG_OF_PERICENTER":"95.7094","MEAN_MOTION":"15.06406276","FILE":"3249421","EPOCH":"2021-12-23T14:22:05.398176","COUNTRY_CODE":"US","ECCENTRICITY":"0.00012780","MEAN_MOTION_DOT":"-0.00000001","DECAY_DATE":null,"CLASSIFICATION_TYPE":"U","TLE_LINE2":"2 48356  53.0578  61.8839 0001278  95.7094 264.4040 15.06406276 35356","SITE":"AFETR"},{"TLE_LINE2":"2 48357  53.0551  61.9013 0001396  87.9836 272.1313 15.06405240 35350","MEAN_MOTION_DOT":"0.00004625","ECCENTRICITY":"0.00013960","CLASSIFICATION_TYPE":"U","DECAY_DATE":null,"SITE":"AFETR","ARG_OF_PERICENTER":"87.9836","FILE":"3249421","MEAN_MOTION":"15.06405240","SEMIMAJOR_AXIS":"6925.332","MEAN_ANOMALY":"272.1313","REF_FRAME":"TEME","RA_OF_ASC_NODE":"61.9013","COUNTRY_CODE":"US","EPOCH":"2021-12-23T14:16:46.749792","ELEMENT_SET_NO":"999","REV_AT_EPOCH":"3535","TIME_SYSTEM":"UTC","EPHEMERIS_TYPE":"0","PERIOD":"95.592","OBJECT_ID":"2021-038E","OBJECT_TYPE":"PAYLOAD","GP_ID":"192324694","LAUNCH_DATE":"2021-05-04","MEAN_ELEMENT_THEORY":"SGP4","INCLINATION":"53.0551","PERIAPSIS":"546.231","BSTAR":"0.00032915000000","OBJECT_NAME":"STARLINK-2636","NORAD_CAT_ID":"48357","MEAN_MOTION_DDOT":"0.0000000000000","CENTER_NAME":"EARTH","TLE_LINE1":"1 48357U 21038E   21357.59498553  .00004625  00000-0  32915-3 0  9997","RCS_SIZE":"LARGE","APOAPSIS":"548.164"},{"EPOCH":"2021-12-23T14:11:30.374592","COUNTRY_CODE":"US","SEMIMAJOR_AXIS":"6925.380","MEAN_ANOMALY":"274.5490","RA_OF_ASC_NODE":"61.9143","REF_FRAME":"TEME","ARG_OF_PERICENTER":"85.5632","FILE":"3249421","MEAN_MOTION":"15.06389753","SITE":"AFETR","MEAN_MOTION_DOT":"0.00003001","ECCENTRICITY":"0.00011710","CLASSIFICATION_TYPE":"U","DECAY_DATE":null,"TLE_LINE2":"2 48358  53.0542  61.9143 0001171  85.5632 274.5490 15.06389753 35345","TLE_LINE1":"1 48358U 21038F   21357.59132378  .00003001  00000-0  22034-3 0  9996","RCS_SIZE":"LARGE","APOAPSIS":"548.056","NORAD_CAT_ID":"48358","MEAN_MOTION_DDOT":"0.0000000000000","CENTER_NAME":"EARTH","BSTAR":"0.00022034000000","OBJECT_NAME":"STARLINK-2624","INCLINATION":"53.0542","MEAN_ELEMENT_THEORY":"SGP4","PERIAPSIS":"546.434","OBJECT_TYPE":"PAYLOAD","OBJECT_ID":"2021-038F","GP_ID":"192325448","LAUNCH_DATE":"2021-05-04","REV_AT_EPOCH":"3534","TIME_SYSTEM":"UTC","EPHEMERIS_TYPE":"0","PERIOD":"95.593","ELEMENT_SET_NO":"999"},{"SITE":"AFETR","TLE_LINE2":"2 48359  53.0564  61.9355 0001327  85.9927 274.1214 15.06393907 35345","DECAY_DATE":null,"CLASSIFICATION_TYPE":"U","ECCENTRICITY":"0.00013270","MEAN_MOTION_DOT":"-0.00000654","COUNTRY_CODE":"US","EPOCH":"2021-12-23T14:06:10.786176","MEAN_MOTION":"15.06393907","FILE":"3249421","ARG_OF_PERICENTER":"85.9927","RA_OF_ASC_NODE":"61.9355","REF_FRAME":"TEME","MEAN_ANOMALY":"274.1214","SEMIMAJOR_AXIS":"6925.367","LAUNCH_DATE":"2021-05-04","GP_ID":"192323698","OBJECT_ID":"2021-038G","OBJECT_TYPE":"PAYLOAD","PERIAPSIS":"546.313","INCLINATION":"53.0564","MEAN_ELEMENT_THEORY":"SGP4","ELEMENT_SET_NO":"999","PERIOD":"95.593","EPHEMERIS_TYPE":"0","TIME_SYSTEM":"UTC","REV_AT_EPOCH":"3534","CENTER_NAME":"EARTH","MEAN_MOTION_DDOT":"0.0000000000000","NORAD_CAT_ID":"48359","RCS_SIZE":"LARGE","APOAPSIS":"548.151","TLE_LINE1":"1 48359U 21038G   21357.58762484 -.00000654  00000-0 -25045-4 0  9992","OBJECT_NAME":"STARLINK-2628","BSTAR":"-0.00002504500000"},{"BSTAR":"0.00036311000000","OBJECT_NAME":"STARLINK-2622","MEAN_MOTION_DDOT":"0.0000000000000","NORAD_CAT_ID":"48360","CENTER_NAME":"EARTH","TLE_LINE1":"1 48360U 21038H   21357.58392665  .00005133  00000-0  36311-3 0  9996","APOAPSIS":"548.175","RCS_SIZE":"LARGE","ELEMENT_SET_NO":"999","TIME_SYSTEM":"UTC","REV_AT_EPOCH":"3534","PERIOD":"95.591","EPHEMERIS_TYPE":"0","GP_ID":"192323949","OBJECT_ID":"2021-038H","OBJECT_TYPE":"PAYLOAD","LAUNCH_DATE":"2021-05-04","INCLINATION":"53.0566","MEAN_ELEMENT_THEORY":"SGP4","PERIAPSIS":"546.190","ARG_OF_PERICENTER":"83.4020","MEAN_MOTION":"15.06410184","FILE":"3249421","MEAN_ANOMALY":"276.7132","SEMIMAJOR_AXIS":"6925.317","REF_FRAME":"TEME","RA_OF_ASC_NODE":"61.9442","COUNTRY_CODE":"US","EPOCH":"2021-12-23T14:00:51.262560","TLE_LINE2":"2 48360  53.0566  61.9442 0001433  83.4020 276.7132 15.06410184 35345","ECCENTRICITY":"0.00014330","MEAN_MOTION_DOT":"0.00005133","DECAY_DATE":null,"CLASSIFICATION_TYPE":"U","SITE":"AFETR"}];
